[{"OBJECT_NAME":"JINJUSAT-1B","OBJECT_ID":"2025-052A","EPOCH":"2026-03-09T15:55:38.242848","MEAN_MOTION":15.30194857,"ECCENTRICITY":0.00055504,"INCLINATION":97.4113,"RA_OF_ASC_NODE":325.4613,"ARG_OF_PERICENTER":82.193,"MEAN_ANOMALY":277.9941,"EPHEMERIS_TYPE":0,"CLASSIFICATION_TYPE":"U","NORAD_CAT_ID":63210,"ELEMENT_SET_NO":999,"REV_AT_EPOCH":5486,"BSTAR":0.00068430401,"MEAN_MOTION_DOT":0.00019955,"MEAN_MOTION_DDOT":0},{"OBJECT_NAME":"STARLINK-35652","OBJECT_ID":"2025-257P","EPOCH":"2026-03-09T17:20:02.890752","MEAN_MOTION":15.30202547,"ECCENTRICITY":9.248e-5,"INCLINATION":53.1596,"RA_OF_ASC_NODE":217.2148,"ARG_OF_PERICENTER":95.0031,"MEAN_ANOMALY":265.1075,"EPHEMERIS_TYPE":0,"CLASSIFICATION_TYPE":"U","NORAD_CAT_ID":66393,"ELEMENT_SET_NO":999,"REV_AT_EPOCH":1973,"BSTAR":0.0011494986,"MEAN_MOTION_DOT":0.00033843,"MEAN_MOTION_DDOT":0}]
